{
  "type": "FeatureCollection",
  "features": [
    {
      "type": "Feature",
      "properties": {
        "norad_id": 33376,
        "name": "GALAXY 19 (G-19)",
        "group": "intelsat",
        "lat": -0.005040170659743725,
        "lon": -70.79752678212006,
        "alt_km": 35774.301885556095,
        "timestamp": "2025-12-26T19:22:38.561871+00:00",
        "meta_object_name": "GALAXY 19 (G-19)",
        "meta_object_id": "2008-045A",
        "meta_epoch": "2025-12-26T11:24:38.058336",
        "meta_mean_motion": 1.00271648,
        "meta_eccentricity": 0.00028136,
        "meta_inclination": 0.0383,
        "meta_ra_of_asc_node": 264.7732,
        "meta_arg_of_pericenter": 18.0555,
        "meta_mean_anomaly": 246.5483,
        "meta_ephemeris_type": 0,
        "meta_classification_type": "U",
        "meta_norad_cat_id": 33376,
        "meta_element_set_no": 999,
        "meta_rev_at_epoch": 6317,
        "meta_bstar": 0,
        "meta_mean_motion_dot": -1.17e-06,
        "meta_mean_motion_ddot": 0,
        "tle_line1": "1 33376U 08045A   25360.47544049 -.00000117  00000+0  00000+0 0  9990",
        "tle_line2": "2 33376   0.0383 264.7732 0002813  18.0555 246.5483  1.00271648 63175"
      },
      "geometry": {
        "type": "Point",
        "coordinates": [
          -70.79752678212006,
          -0.005040170659743725
        ]
      }
    },
    {
      "type": "Feature",
      "properties": {
        "norad_id": 35493,
        "name": "FM-5",
        "group": "intelsat",
        "lat": -0.011887106518473306,
        "lon": -59.953441610918325,
        "alt_km": 35789.281749145135,
        "timestamp": "2025-12-26T19:22:38.561882+00:00",
        "meta_object_name": "FM-5",
        "meta_object_id": "2009-034A",
        "meta_epoch": "2025-12-25T21:13:02.840160",
        "meta_mean_motion": 1.00269478,
        "meta_eccentricity": 7.9e-05,
        "meta_inclination": 0.0148,
        "meta_ra_of_asc_node": 303.8545,
        "meta_arg_of_pericenter": 217.7513,
        "meta_mean_anomaly": 165.1409,
        "meta_ephemeris_type": 0,
        "meta_classification_type": "U",
        "meta_norad_cat_id": 35493,
        "meta_element_set_no": 999,
        "meta_rev_at_epoch": 4490,
        "meta_bstar": 0,
        "meta_mean_motion_dot": -1.78e-06,
        "meta_mean_motion_ddot": 0,
        "tle_line1": "1 35493U 09034A   25359.88406065 -.00000178  00000+0  00000+0 0  9996",
        "tle_line2": "2 35493   0.0148 303.8545 0000790 217.7513 165.1409  1.00269478 44909"
      },
      "geometry": {
        "type": "Point",
        "coordinates": [
          -59.953441610918325,
          -0.011887106518473306
        ]
      }
    },
    {
      "type": "Feature",
      "properties": {
        "norad_id": 36097,
        "name": "INTELSAT 14 (IS-14)",
        "group": "intelsat",
        "lat": -0.021641909932052592,
        "lon": -18.773070139344597,
        "alt_km": 35780.34764949008,
        "timestamp": "2025-12-26T19:22:38.561894+00:00",
        "meta_object_name": "INTELSAT 14 (IS-14)",
        "meta_object_id": "2009-064A",
        "meta_epoch": "2025-12-26T11:06:19.224000",
        "meta_mean_motion": 1.00271706,
        "meta_eccentricity": 0.00026446,
        "meta_inclination": 0.0128,
        "meta_ra_of_asc_node": 39.804,
        "meta_arg_of_pericenter": 242.6643,
        "meta_mean_anomaly": 294.3197,
        "meta_ephemeris_type": 0,
        "meta_classification_type": "U",
        "meta_norad_cat_id": 36097,
        "meta_element_set_no": 999,
        "meta_rev_at_epoch": 5887,
        "meta_bstar": 0,
        "meta_mean_motion_dot": -2.51e-06,
        "meta_mean_motion_ddot": 0,
        "tle_line1": "1 36097U 09064A   25360.46272250 -.00000251  00000+0  00000+0 0  9995",
        "tle_line2": "2 36097   0.0128  39.8040 0002644 242.6643 294.3197  1.00271706 58872"
      },
      "geometry": {
        "type": "Point",
        "coordinates": [
          -18.773070139344597,
          -0.021641909932052592
        ]
      }
    },
    {
      "type": "Feature",
      "properties": {
        "norad_id": 36106,
        "name": "INTELSAT 15 (IS-15)",
        "group": "intelsat",
        "lat": 0.029726454836015836,
        "lon": 111.34743860724828,
        "alt_km": 35796.82512371639,
        "timestamp": "2025-12-26T19:22:38.561905+00:00",
        "meta_object_name": "INTELSAT 15 (IS-15)",
        "meta_object_id": "2009-067A",
        "meta_epoch": "2025-12-26T03:37:38.694720",
        "meta_mean_motion": 1.00270174,
        "meta_eccentricity": 0.00024301,
        "meta_inclination": 0.0154,
        "meta_ra_of_asc_node": 51.9638,
        "meta_arg_of_pericenter": 235.3713,
        "meta_mean_anomaly": 307.1291,
        "meta_ephemeris_type": 0,
        "meta_classification_type": "U",
        "meta_norad_cat_id": 36106,
        "meta_element_set_no": 999,
        "meta_rev_at_epoch": 3949,
        "meta_bstar": 0,
        "meta_mean_motion_dot": -1.63e-06,
        "meta_mean_motion_ddot": 0,
        "tle_line1": "1 36106U 09067A   25360.15114230 -.00000163  00000+0  00000+0 0  9990",
        "tle_line2": "2 36106   0.0154  51.9638 0002430 235.3713 307.1291  1.00270174 39493"
      },
      "geometry": {
        "type": "Point",
        "coordinates": [
          111.34743860724828,
          0.029726454836015836
        ]
      }
    },
    {
      "type": "Feature",
      "properties": {
        "norad_id": 36131,
        "name": "DIRECTV 12",
        "group": "intelsat",
        "lat": -0.0045288548557743434,
        "lon": -76.50559783744534,
        "alt_km": 35783.685285820466,
        "timestamp": "2025-12-26T19:22:38.561917+00:00",
        "meta_object_name": "DIRECTV 12",
        "meta_object_id": "2009-075A",
        "meta_epoch": "2025-12-25T14:17:27.635136",
        "meta_mean_motion": 1.00273448,
        "meta_eccentricity": 5.26e-05,
        "meta_inclination": 0.0362,
        "meta_ra_of_asc_node": 165.2057,
        "meta_arg_of_pericenter": 147.3669,
        "meta_mean_anomaly": 253.4343,
        "meta_ephemeris_type": 0,
        "meta_classification_type": "U",
        "meta_norad_cat_id": 36131,
        "meta_element_set_no": 999,
        "meta_rev_at_epoch": 4481,
        "meta_bstar": 0,
        "meta_mean_motion_dot": -8.2e-07,
        "meta_mean_motion_ddot": 0,
        "tle_line1": "1 36131U 09075A   25359.59545874 -.00000082  00000+0  00000+0 0  9995",
        "tle_line2": "2 36131   0.0362 165.2057 0000526 147.3669 253.4343  1.00273448 44812"
      },
      "geometry": {
        "type": "Point",
        "coordinates": [
          -76.50559783744534,
          -0.0045288548557743434
        ]
      }
    },
    {
      "type": "Feature",
      "properties": {
        "norad_id": 36397,
        "name": "INTELSAT 16 (IS-16)",
        "group": "intelsat",
        "lat": -0.024652195239046337,
        "lon": -49.96790412535308,
        "alt_km": 35779.30138117685,
        "timestamp": "2025-12-26T19:22:38.561929+00:00",
        "meta_object_name": "INTELSAT 16 (IS-16)",
        "meta_object_id": "2010-006A",
        "meta_epoch": "2025-12-26T12:40:10.236864",
        "meta_mean_motion": 1.00271686,
        "meta_eccentricity": 0.00020264,
        "meta_inclination": 0.0098,
        "meta_ra_of_asc_node": 8.0351,
        "meta_arg_of_pericenter": 264.8493,
        "meta_mean_anomaly": 296.2475,
        "meta_ephemeris_type": 0,
        "meta_classification_type": "U",
        "meta_norad_cat_id": 36397,
        "meta_element_set_no": 999,
        "meta_rev_at_epoch": 5792,
        "meta_bstar": 0,
        "meta_mean_motion_dot": -2.23e-06,
        "meta_mean_motion_ddot": 0,
        "tle_line1": "1 36397U 10006A   25360.52789626 -.00000223  00000+0  00000+0 0  9992",
        "tle_line2": "2 36397   0.0098   8.0351 0002026 264.8493 296.2475  1.00271686 57929"
      },
      "geometry": {
        "type": "Point",
        "coordinates": [
          -49.96790412535308,
          -0.024652195239046337
        ]
      }
    },
    {
      "type": "Feature",
      "properties": {
        "norad_id": 37185,
        "name": "XM-5",
        "group": "intelsat",
        "lat": -0.017170866426081788,
        "lon": -88.97210126089405,
        "alt_km": 35789.97855428739,
        "timestamp": "2025-12-26T19:22:38.561941+00:00",
        "meta_object_name": "XM-5",
        "meta_object_id": "2010-053A",
        "meta_epoch": "2025-12-26T06:45:38.542176",
        "meta_mean_motion": 1.00272159,
        "meta_eccentricity": 0.00020386,
        "meta_inclination": 0.0641,
        "meta_ra_of_asc_node": 269.394,
        "meta_arg_of_pericenter": 243.8981,
        "meta_mean_anomaly": 287.9534,
        "meta_ephemeris_type": 0,
        "meta_classification_type": "U",
        "meta_norad_cat_id": 37185,
        "meta_element_set_no": 999,
        "meta_rev_at_epoch": 5575,
        "meta_bstar": 0,
        "meta_mean_motion_dot": -1e-08,
        "meta_mean_motion_ddot": 0,
        "tle_line1": "1 37185U 10053A   25360.28169609 -.00000001  00000+0  00000+0 0  9990",
        "tle_line2": "2 37185   0.0641 269.3940 0002038 243.8981 287.9534  1.00272159 55755"
      },
      "geometry": {
        "type": "Point",
        "coordinates": [
          -88.97210126089405,
          -0.017170866426081788
        ]
      }
    }
  ]
}